NUSAT-1 (FRESCO)        
1 41557U 16033B   21349.83344808  .00002446  00000+0  84960-4 0  9998
2 41557  97.3926  82.8827 0011226 317.2211 191.8176 15.30677410309261
BEESAT-4                
1 41619U 16040W   21349.56211153  .00003452  00000+0  13350-3 0  9993
2 41619  97.2468  40.4650 0011648  56.4604 303.7746 15.26813505292631
CAS-2T & KS-1Q          
1 41847U 16066G   21349.77385572  .00000148  00000+0  31936-4 0  9994
2 41847  98.5788  49.4369 0365593  39.1252 323.5770 14.38300408267945
NAYIF-1 (EO-88)         
1 42017U 17008BX  21349.73248506  .00004300  00000+0  15221-3 0  9994
2 42017  97.2968  54.0284 0005940 168.6342 191.5034 15.29653639268950
ZHUHAI-1 02 (CAS-4B)    
1 42759U 17034B   21349.82861333  .00000763  00000+0  58554-4 0  9991
2 42759  43.0182 263.6849 0008478 226.4676 236.9849 15.10614135248579
ZHUHAI-1 01 (CAS-4A)    
1 42761U 17034D   21349.87722821  .00000602  00000+0  48881-4 0  9991
2 42761  43.0178 262.3384 0008770 228.1401 246.2585 15.10699460248583
MAX VALIER SAT          
1 42778U 17036P   21349.91949688  .00002117  00000+0  89020-4 0  9991
2 42778  97.2327  32.4264 0009969 253.1772 106.8373 15.24434310248921
RADFXSAT (FOX-1B)       
1 43017U 17073E   21349.69104281  .00001096  00000+0  87989-4 0  9993
2 43017  97.6924 246.3623 0254752  68.8757 293.9482 14.80009393219923
FOX-1D (AO-92)          
1 43137U 18004AC  21349.87647743  .00002979  00000+0  11782-3 0  9994
2 43137  97.3914  61.9812 0006955 295.7904  64.2616 15.26234527218329
DIWATA-2B               
1 43678U 18084H   21349.89024408 -.00000162  00000+0 -10300-4 0  9991
2 43678  97.9464 116.3755 0010113 164.0286 196.1239 14.91847842170489
ES'HAIL 2               
1 43700U 18090A   21349.82703831  .00000161  00000+0  00000+0 0  9999
2 43700   0.0171 325.3556 0002258 318.7240 124.1656  1.00273127 11185
FOX-1CLIFF (AO-95)      
1 43770U 18099N   21349.84691122  .00000458  00000+0  46303-4 0  9996
2 43770  97.6462  55.8556 0014819 166.0084 194.1551 14.95588617165562
ITASAT 1                
1 43786U 18099AE  21349.86618750  .00000956  00000+0  90448-4 0  9993
2 43786  97.6486  56.6779 0015749 158.8705 201.3170 14.95847415165600
JY1SAT (JO-97)          
1 43803U 18099AX  21349.73034051  .00000994  00000+0  93163-4 0  9994
2 43803  97.6447  56.2826 0015699 159.0265 201.1604 14.96149919165597
UWE-4                   
1 43880U 18111E   21349.72518837  .00000280  00000+0  29195-4 0  9994
2 43880  97.6778 254.2635 0011219 212.6442 147.4087 14.97174463162209
NEXUS (FO-99)           
1 43937U 19003F   21349.66725205  .00003176  00000+0  12190-3 0  9993
2 43937  97.1557  25.4839 0024261  89.4604 270.9416 15.26901698161902
PSAT2 (NO-104)          
1 44354U 19036R   21349.68524400  .00018740  00000+0  22368-3 0  9990
2 44354  28.5261 352.5134 0296113  91.2089 272.2441 15.21376657136522
BRICSAT2 (NO-103)       
1 44355U 19036S   21349.92992946  .00056272 -57903-5  44268-3 0  9998
2 44355  28.5254 267.6963 0197652 229.4119 128.9129 15.48063884137398
JAISAT-1                
1 44419U 19038F   21349.84870376  .00002203  00000+0  12242-3 0  9995
2 44419  97.6133 314.2131 0022082  49.3673 310.9475 15.14577606135240
DUCHIFAT-3              
1 44854U 19089C   21349.69699730  .00000762  00000+0  66688-4 0  9992
2 44854  36.9646 108.5456 0006852 174.2731 185.8115 14.99853844110327
CAS-6 (TO-108)          
1 44881U 19093C   21349.81499976  .00000094  00000+0  18706-4 0  9997
2 44881  97.9114  66.5390 0016435  65.7345 294.5577 14.81522009107588
RS-44 & BREEZE-KM R/B   
1 44909U 19096E   21349.93222844  .00000038  00000+0  10398-3 0  9998
2 44909  82.5211 352.2256 0217975  29.0941 332.2102 12.79711540 92032
ORBITAL FACTORY 2 (OF-2)
1 45113U 19071C   21349.91212004  .00006258  00000+0  17526-3 0  9994
2 45113  51.6408 236.4725 0010618 224.1890 135.8246 15.37925147105077
HUSKYSAT-1 (HO-107)     
1 45119U 19071J   21349.92890739  .00005059  00000+0  14440-3 0  9998
2 45119  51.6405 235.8226 0010192 220.5568 139.4658 15.37776870105072
BY70-2                  
1 45857U 20042B   21349.75855349  .00001364  00000+0  19760-3 0  9991
2 45857  97.9724  63.5751 0010126 356.5134   3.5994 14.77681789 78310
SALSAT                  
1 46495U 20068K   21349.94323218  .00000059  00000+0  88516-5 0  9991
2 46495  97.7108 286.5298 0016777 171.4079 188.7437 15.03709252 66609
BY70-3                  
1 46839U 20079N   21349.93296056  .00004094  00000+0  12076-3 0  9992
2 46839  97.2241  60.2064 0005203 276.7448 197.5640 15.35548699 62031
RADFXSAT-2 (AO-109)     
1 47311U 21002C   21349.93116097  .00001622  00000+0  80256-4 0  9991
2 47311  60.6858 331.4395 0033516 140.1429 220.2129 15.22551402 50491
UVSQ-SAT                
1 47438U 21006AB  21349.61210337  .00001461  00000+0  84548-4 0  9991
2 47438  97.4657  47.4201 0012402 185.3899 174.7201 15.13734970 49450
DIY-1 (ARDUIQUBE)       
1 47963U 21022AH  21349.46632207  .00003766  00000+0  24383-3 0  9999
2 47963  97.5461 248.5724 0020577  48.0453 312.2525 15.08583256 39173
